 2009  528 1010  0.0 L                                                         1
 ACTION:REG 09-12-10 13:22 OP:JHN  STATUS:               ID:20090528101000     I
 2009-05-28-1010-00S.UNC___041                                                 6
 STAT SP IPHASW D HRMM SECON CODA AMPLIT PERI AZIMU VELO AIN AR TRES W  DIS CAZ7
 JUR  BZ IP   9 D 1018 21.65                             170   -99.9 0 22.6 281 
 JUR  BE ES       1018 42.63                             170   -99.9 0 22.6 281 
 PRI  BZ IP   9 D 1023 19.45                             167   -37.1 0 30.9 235 
 GUA  BN EP   9   1023 55.33                             164   -1.5910 42.4  12 
 GUA  BN ES       1024 12.93                             164   -0.1610 42.4  12 
 CUC  BZ EP   9   1023 56.89                             163   -0.0610 43.4 264 
 CUC  BN ES       1024 13.29                             163    0.1510 43.4 264 
 MUL  BN ES   3   1019 53.13                             161   -99.9 0 48.7 332 
 LOL  BZ EP   9   1024  0.51                             156    2.7110 63.4 352 
 LOL  BE ES   2   1024 17.84                             156    3.17 5 63.4 352 
 CHA  BZ IP   1 D 1023 57.58                             152   -0.8010 74.2 342 
 EL40 BZ IP   9 D 1018 38.26                             157   -99.9 0 60.5 233 
 MUL  BZ EP   9   1019 38.01                             161   -99.9 0 48.7 332 
 EL40 BN ES       1018 52.31                             157           60.5 233 
 PRI  BE ES       1023 34.54                                                    
 SOL  SZ EP       1024 17.54                                                    
 DBB  SZ EP       1024 11.99                                                    
 COC  BZ IP     D 1023  9.58                                                    
 SPD  BN EP       1020 24.84                                                    
 SPD  BN ES       1020 40.34                                                    
                                                                                
